ORBCOMM FM115 [+]       
1 41186U 15081H   24058.50735205  .00001131  00000+0  26666-3 0  9995
2 41186  46.9983 138.1643 0000652 307.5735  52.5092 14.60404933438192
ORBCOMM FM108 [+]       
1 41187U 15081J   24058.76030328  .00001193  00000+0  30426-3 0  9995
2 41187  47.0033 188.9788 0003108 278.0050  82.0482 14.56322406437532
ORBCOMM FM117 [+]       
1 41188U 15081K   24058.79485167  .00001108  00000+0  28519-3 0  9990
2 41188  46.9996 187.7359 0003516 289.1822  70.8682 14.56315277437550
ORBCOMM FM116 [+]       
1 41189U 15081L   24058.30382629  .00000909  00000+0  24063-3 0  9995
2 41189  47.0014 279.8626 0001845  24.7028 335.3945 14.56314534436249
